0 ONEWEB-0387
1 49313U 21090AL  24189.14673539  .00000070  00000-0  14052-3 0  9996
2 49313  87.9197  55.7703 0001714  94.4814 265.6515 13.20770374137402
0 ONEWEB-0388
1 49314U 21090AM  24189.23193052  .00000085  00000-0  17950-3 0  9990
2 49314  87.9148  86.2510 0002068  79.8294 280.3072 13.19727783134061
0 ONEWEB-0389
1 50469U 21132A   24188.89246179  .00000038  00000-0  63591-4 0  9991
2 50469  87.9182 147.2842 0001894  94.7620 265.3727 13.17649829124547
0 ONEWEB-0390
1 50470U 21132B   24189.12189784  .00000060  00000-0  12160-3 0  9998
2 50470  87.9182 147.2463 0001712  80.9719 279.1606 13.17650646125867
0 ONEWEB-0391
1 50471U 21132C   24188.89569510  .00000021  00000-0  22029-4 0  9994
2 50471  87.9190 147.2758 0002016  93.3079 266.8283 13.17649814124542
0 ONEWEB-0392
1 50472U 21132D   24188.92477920 -.00000032  00000-0 -11548-3 0  9999
2 50472  87.9174 147.2672 0001932  99.2233 260.9117 13.17648723124586
0 ONEWEB-0393
1 50473U 21132E   24188.89907068 -.00000023  00000-0 -92538-4 0  9996
2 50473  87.9186 147.2509 0001947  89.6605 270.4750 13.17646438124570
0 ONEWEB-0394
1 50474U 21132F   24188.81793649  .00000023  00000-0  25340-4 0  9992
2 50474  87.9147 116.8733 0002056  81.7819 278.3546 13.18685527127971
